[{"OBJECT_NAME":"ONEWEB-0600","OBJECT_ID":"2022-166Y","EPOCH":"2026-04-08T22:20:58.872480","MEAN_MOTION":13.21886551,"ECCENTRICITY":0.0001964,"INCLINATION":87.9181,"RA_OF_ASC_NODE":257.7764,"ARG_OF_PERICENTER":101.4508,"MEAN_ANOMALY":258.6846,"EPHEMERIS_TYPE":0,"CLASSIFICATION_TYPE":"U","NORAD_CAT_ID":54664,"ELEMENT_SET_NO":999,"REV_AT_EPOCH":16236,"BSTAR":-0.00060179,"MEAN_MOTION_DOT":-2.36e-06,"MEAN_MOTION_DDOT":0.0},{"OBJECT_NAME":"ONEWEB-0601","OBJECT_ID":"2022-166Z","EPOCH":"2026-04-08T23:57:51.420384","MEAN_MOTION":13.21910337,"ECCENTRICITY":0.0001354,"INCLINATION":87.9164,"RA_OF_ASC_NODE":257.7753,"ARG_OF_PERICENTER":105.1928,"MEAN_ANOMALY":254.9356,"EPHEMERIS_TYPE":0,"CLASSIFICATION_TYPE":"U","NORAD_CAT_ID":54665,"ELEMENT_SET_NO":999,"REV_AT_EPOCH":16256,"BSTAR":-0.0011702,"MEAN_MOTION_DOT":-4.71e-06,"MEAN_MOTION_DDOT":0.0},{"OBJECT_NAME":"ONEWEB-0602","OBJECT_ID":"2022-166AA","EPOCH":"2026-04-08T23:08:12.387264","MEAN_MOTION":13.2176544,"ECCENTRICITY":0.000215,"INCLINATION":87.9186,"RA_OF_ASC_NODE":257.7933,"ARG_OF_PERICENTER":100.5969,"MEAN_ANOMALY":259.5407,"EPHEMERIS_TYPE":0,"CLASSIFICATION_TYPE":"U","NORAD_CAT_ID":54666,"ELEMENT_SET_NO":999,"REV_AT_EPOCH":16240,"BSTAR":0.0046059000000000004,"MEAN_MOTION_DOT":1.914e-05,"MEAN_MOTION_DDOT":0.0},{"OBJECT_NAME":"ONEWEB-0603","OBJECT_ID":"2022-166AB","EPOCH":"2026-04-08T23:16:40.863360","MEAN_MOTION":13.21751961,"ECCENTRICITY":0.0002195,"INCLINATION":87.923,"RA_OF_ASC_NODE":257.7394,"ARG_OF_PERICENTER":111.7801,"MEAN_ANOMALY":248.3566,"EPHEMERIS_TYPE":0,"CLASSIFICATION_TYPE":"U","NORAD_CAT_ID":54667,"ELEMENT_SET_NO":999,"REV_AT_EPOCH":16233,"BSTAR":0.0022672,"MEAN_MOTION_DOT":9.48e-06,"MEAN_MOTION_DDOT":0.0},{"OBJECT_NAME":"ONEWEB-0604","OBJECT_ID":"2022-166AC","EPOCH":"2026-04-08T22:59:43.782432","MEAN_MOTION":13.2177994,"ECCENTRICITY":0.0001877,"INCLINATION":87.9199,"RA_OF_ASC_NODE":257.7585,"ARG_OF_PERICENTER":94.7646,"MEAN_ANOMALY":265.3702,"EPHEMERIS_TYPE":0,"CLASSIFICATION_TYPE":"U","NORAD_CAT_ID":54668,"ELEMENT_SET_NO":999,"REV_AT_EPOCH":16229,"BSTAR":0.0016607,"MEAN_MOTION_DOT":6.98e-06,"MEAN_MOTION_DDOT":0.0},{"OBJECT_NAME":"ONEWEB-0605","OBJECT_ID":"2022-166AD","EPOCH":"2026-04-08T22:50:02.456448","MEAN_MOTION":13.21802969,"ECCENTRICITY":0.0001387,"INCLINATION":87.9188,"RA_OF_ASC_NODE":257.78,"ARG_OF_PERICENTER":113.5645,"MEAN_ANOMALY":246.5635,"EPHEMERIS_TYPE":0,"CLASSIFICATION_TYPE":"U","NORAD_CAT_ID":54669,"ELEMENT_SET_NO":999,"REV_AT_EPOCH":16236,"BSTAR":6.102e-05,"MEAN_MOTION_DOT":3.8e-07,"MEAN_MOTION_DDOT":0.0},{"OBJECT_NAME":"ONEWEB-0606","OBJECT_ID":"2022-166AE","EPOCH":"2026-04-08T23:21:30.428640","MEAN_MOTION":13.2174675,"ECCENTRICITY":0.0001803,"INCLINATION":87.9189,"RA_OF_ASC_NODE":257.7884,"ARG_OF_PERICENTER":92.617,"MEAN_ANOMALY":267.5171,"EPHEMERIS_TYPE":0,"CLASSIFICATION_TYPE":"U","NORAD_CAT_ID":54670,"ELEMENT_SET_NO":999,"REV_AT_EPOCH":16242,"BSTAR":0.0092558,"MEAN_MOTION_DOT":3.833e-05,"MEAN_MOTION_DDOT":0.0},{"OBJECT_NAME":"ONEWEB-0607","OBJECT_ID":"2022-166AF","EPOCH":"2026-04-08T22:33:05.953536","MEAN_MOTION":13.21854597,"ECCENTRICITY":0.0001894,"INCLINATION":87.9193,"RA_OF_ASC_NODE":257.7612,"ARG_OF_PERICENTER":102.0581,"MEAN_ANOMALY":258.0765,"EPHEMERIS_TYPE":0,"CLASSIFICATION_TYPE":"U","NORAD_CAT_ID":54671,"ELEMENT_SET_NO":999,"REV_AT_EPOCH":16239,"BSTAR":-7.7012e-05,"MEAN_MOTION_DOT":-1.9e-07,"MEAN_MOTION_DDOT":0.0},{"OBJECT_NAME":"ONEWEB-0608","OBJECT_ID":"2022-166AG","EPOCH":"2026-04-08T20:53:46.328640","MEAN_MOTION":13.21826513,"ECCENTRICITY":0.000158,"INCLINATION":87.9195,"RA_OF_ASC_NODE":257.7696,"ARG_OF_PERICENTER":115.9029,"MEAN_ANOMALY":244.2268,"EPHEMERIS_TYPE":0,"CLASSIFICATION_TYPE":"U","NORAD_CAT_ID":54672,"ELEMENT_SET_NO":999,"REV_AT_EPOCH":16239,"BSTAR":0.00012552,"MEAN_MOTION_DOT":6.5e-07,"MEAN_MOTION_DDOT":0.0},{"OBJECT_NAME":"ONEWEB-0610","OBJECT_ID":"2022-166AH","EPOCH":"2026-04-09T00:02:43.496448","MEAN_MOTION":13.21871255,"ECCENTRICITY":0.000172,"INCLINATION":87.9187,"RA_OF_ASC_NODE":257.7648,"ARG_OF_PERICENTER":120.9343,"MEAN_ANOMALY":239.196,"EPHEMERIS_TYPE":0,"CLASSIFICATION_TYPE":"U","NORAD_CAT_ID":54673,"ELEMENT_SET_NO":999,"REV_AT_EPOCH":16231,"BSTAR":-0.010461,"MEAN_MOTION_DOT":-4.308e-05,"MEAN_MOTION_DDOT":0.0},{"OBJECT_NAME":"ONEWEB-0611","OBJECT_ID":"2022-166AJ","EPOCH":"2026-04-08T23:53:02.163552","MEAN_MOTION":13.21908923,"ECCENTRICITY":0.0001281,"INCLINATION":87.9167,"RA_OF_ASC_NODE":257.7609,"ARG_OF_PERICENTER":93.1248,"MEAN_ANOMALY":267.0033,"EPHEMERIS_TYPE":0,"CLASSIFICATION_TYPE":"U","NORAD_CAT_ID":54674,"ELEMENT_SET_NO":999,"REV_AT_EPOCH":16230,"BSTAR":-0.006544,"MEAN_MOTION_DOT":-2.692e-05,"MEAN_MOTION_DDOT":0.0},{"OBJECT_NAME":"ONEWEB-0612","OBJECT_ID":"2022-166AK","EPOCH":"2026-04-08T22:23:23.953632","MEAN_MOTION":13.21881124,"ECCENTRICITY":0.0001724,"INCLINATION":87.9197,"RA_OF_ASC_NODE":257.7625,"ARG_OF_PERICENTER":103.62,"MEAN_ANOMALY":256.5126,"EPHEMERIS_TYPE":0,"CLASSIFICATION_TYPE":"U","NORAD_CAT_ID":54675,"ELEMENT_SET_NO":999,"REV_AT_EPOCH":16228,"BSTAR":-3.3223000000000004e-05,"MEAN_MOTION_DOT":-1e-08,"MEAN_MOTION_DDOT":0.0},{"OBJECT_NAME":"ONEWEB-0615","OBJECT_ID":"2022-166AL","EPOCH":"2026-04-08T23:43:19.588224","MEAN_MOTION":13.2196487,"ECCENTRICITY":0.0001638,"INCLINATION":87.9117,"RA_OF_ASC_NODE":257.7727,"ARG_OF_PERICENTER":97.1875,"MEAN_ANOMALY":262.9445,"EPHEMERIS_TYPE":0,"CLASSIFICATION_TYPE":"U","NORAD_CAT_ID":54676,"ELEMENT_SET_NO":999,"REV_AT_EPOCH":16230,"BSTAR":-0.006673900000000001,"MEAN_MOTION_DOT":-2.748e-05,"MEAN_MOTION_DDOT":0.0},{"OBJECT_NAME":"ONEWEB-0655","OBJECT_ID":"2022-166AM","EPOCH":"2026-04-08T23:09:25.206048","MEAN_MOTION":13.2176243,"ECCENTRICITY":0.0002176,"INCLINATION":87.9192,"RA_OF_ASC_NODE":257.7794,"ARG_OF_PERICENTER":101.153,"MEAN_ANOMALY":258.9849,"EPHEMERIS_TYPE":0,"CLASSIFICATION_TYPE":"U","NORAD_CAT_ID":54677,"ELEMENT_SET_NO":999,"REV_AT_EPOCH":16229,"BSTAR":0.0037101,"MEAN_MOTION_DOT":1.544e-05,"MEAN_MOTION_DDOT":0.0},{"OBJECT_NAME":"ONEWEB-0659","OBJECT_ID":"2022-166AN","EPOCH":"2026-04-09T03:11:37.984128","MEAN_MOTION":13.21724105,"ECCENTRICITY":0.0001839,"INCLINATION":87.9193,"RA_OF_ASC_NODE":257.7455,"ARG_OF_PERICENTER":94.1349,"MEAN_ANOMALY":265.9995,"EPHEMERIS_TYPE":0,"CLASSIFICATION_TYPE":"U","NORAD_CAT_ID":54678,"ELEMENT_SET_NO":999,"REV_AT_EPOCH":16240,"BSTAR":0.011685000000000001,"MEAN_MOTION_DOT":4.834e-05,"MEAN_MOTION_DDOT":0.0},{"OBJECT_NAME":"ONEWEB-0685","OBJECT_ID":"2022-166AP","EPOCH":"2026-04-09T03:11:31.509312","MEAN_MOTION":13.2181511,"ECCENTRICITY":0.0001837,"INCLINATION":87.918,"RA_OF_ASC_NODE":257.7405,"ARG_OF_PERICENTER":104.5319,"MEAN_ANOMALY":255.6019,"EPHEMERIS_TYPE":0,"CLASSIFICATION_TYPE":"U","NORAD_CAT_ID":54679,"ELEMENT_SET_NO":999,"REV_AT_EPOCH":16229,"BSTAR":-3.0161e-05,"MEAN_MOTION_DOT":1e-08,"MEAN_MOTION_DDOT":0.0}]