ONEWEB-0600             
1 54664U 22166Y   26098.93123695 -.00000236  00000+0 -60179-3 0  9993
2 54664  87.9181 257.7764 0001964 101.4508 258.6846 13.21886551162365
ONEWEB-0601             
1 54665U 22166Z   26098.99851181 -.00000471  00000+0 -11702-2 0  9996
2 54665  87.9164 257.7753 0001354 105.1928 254.9356 13.21910337162562
ONEWEB-0602             
1 54666U 22166AA  26098.96403226  .00001914  00000+0  46059-2 0  9991
2 54666  87.9186 257.7933 0002150 100.5969 259.5407 13.21765440162400
ONEWEB-0603             
1 54667U 22166AB  26098.96991740  .00000948  00000+0  22672-2 0  9996
2 54667  87.9230 257.7394 0002195 111.7801 248.3566 13.21751961162337
ONEWEB-0604             
1 54668U 22166AC  26098.95814563  .00000698  00000+0  16607-2 0  9996
2 54668  87.9199 257.7585 0001877  94.7646 265.3702 13.21779940162290
ONEWEB-0605             
1 54669U 22166AD  26098.95141732  .00000038  00000+0  61020-4 0  9997
2 54669  87.9188 257.7800 0001387 113.5645 246.5635 13.21802969162366
ONEWEB-0606             
1 54670U 22166AE  26098.97326885  .00003833  00000+0  92558-2 0  9999
2 54670  87.9189 257.7884 0001803  92.6170 267.5171 13.21746750162424
ONEWEB-0607             
1 54671U 22166AF  26098.93965224 -.00000019  00000+0 -77012-4 0  9997
2 54671  87.9193 257.7612 0001894 102.0581 258.0765 13.21854597162390
ONEWEB-0608             
1 54672U 22166AG  26098.87067510  .00000065  00000+0  12552-3 0  9998
2 54672  87.9195 257.7696 0001580 115.9029 244.2268 13.21826513162399
ONEWEB-0610             
1 54673U 22166AH  26099.00189232 -.00004308  00000+0 -10461-1 0  9992
2 54673  87.9187 257.7648 0001720 120.9343 239.1960 13.21871255162316
ONEWEB-0611             
1 54674U 22166AJ  26098.99516393 -.00002692  00000+0 -65440-2 0  9994
2 54674  87.9167 257.7609 0001281  93.1248 267.0033 13.21908923162302
ONEWEB-0612             
1 54675U 22166AK  26098.93291613 -.00000001  00000+0 -33223-4 0  9992
2 54675  87.9197 257.7625 0001724 103.6200 256.5126 13.21881124162287
ONEWEB-0615             
1 54676U 22166AL  26098.98842116 -.00002748  00000+0 -66739-2 0  9994
2 54676  87.9117 257.7727 0001638  97.1875 262.9445 13.21964870162300
ONEWEB-0655             
1 54677U 22166AM  26098.96487507  .00001544  00000+0  37101-2 0  9994
2 54677  87.9192 257.7794 0002176 101.1530 258.9849 13.21762430162299
ONEWEB-0659             
1 54678U 22166AN  26099.13307852  .00004834  00000+0  11685-1 0  9992
2 54678  87.9193 257.7455 0001839  94.1349 265.9995 13.21724105162409
ONEWEB-0685             
1 54679U 22166AP  26099.13300358  .00000001  00000+0 -30161-4 0  9993
2 54679  87.9180 257.7405 0001837 104.5319 255.6019 13.21815110162299
